ONEWEB-0549             
1 56051U 23043F   26002.31496311  .00000096  00000+0  20044-3 0  9994
2 56051  87.9224 277.0725 0001443  65.2689 294.8595 13.21828057136312
ONEWEB-0550             
1 56052U 23043G   26002.30181108  .00000097  00000+0  20322-3 0  9999
2 56052  87.9224 277.0706 0001700  77.5615 282.5709 13.21825539136316
ONEWEB-0551             
1 56053U 23043H   26002.19814746 -.00000020  00000+0 -86113-4 0  9997
2 56053  87.9006 292.3590 0001631  67.1957 292.9345 13.15547379134576
ONEWEB-0552             
1 56054U 23043J   26002.29684666  .00000106  00000+0  22512-3 0  9990
2 56054  87.9225 277.0798 0001637  66.3314 293.7992 13.21829562136319
ONEWEB-0553             
1 56055U 23043K   26002.20457248 -.00000299  00000+0 -81469-3 0  9997
2 56055  87.9032 261.8262 0001701  90.9429 269.1897 13.16589460137131
ONEWEB-0554             
1 56056U 23043L   26002.19190495 -.00000017  00000+0 -78511-4 0  9997
2 56056  87.9034 261.8382 0001800  76.0870 284.0461 13.16594097137115
ONEWEB-0555             
1 56057U 23043M   26002.15390780  .00000124  00000+0  29164-3 0  9999
2 56057  87.9044 261.8286 0001514  95.4337 264.6967 13.16593463137116
ONEWEB-0557             
1 56058U 23043N   26002.16816016  .00000215  00000+0  52828-3 0  9990
2 56058  87.9039 261.8387 0002645  95.0811 265.0621 13.16593900137110
ONEWEB-0558             
1 56059U 23043P   26002.21459876  .00000091  00000+0  18810-3 0  9999
2 56059  87.9221 277.0897 0001197  63.2260 296.8996 13.21826017136317
ONEWEB-0559             
1 56060U 23043Q   26002.20306623  .00000026  00000+0  30490-4 0  9998
2 56060  87.9224 277.0851 0001573  65.0800 295.0497 13.21826489136321
ONEWEB-0566             
1 56061U 23043R   26002.19648262  .00000055  00000+0  10065-3 0  9992
2 56061  87.9225 277.0853 0001460  62.3143 297.8139 13.21827346136304
ONEWEB-0568             
1 56062U 23043S   26002.18556764  .00000153  00000+0  36591-3 0  9998
2 56062  87.9046 261.8231 0001468  89.4843 270.6456 13.16594167137131
ONEWEB-0574             
1 56063U 23043T   26002.18990007  .00000113  00000+0  24327-3 0  9991
2 56063  87.9228 277.0737 0001761  76.6584 283.4747 13.21827875136348
ONEWEB-0575             
1 56064U 23043U   26002.17923383  .00000142  00000+0  33715-3 0  9997
2 56064  87.9043 261.8241 0001834  82.2307 277.9033 13.16593906137124
ONEWEB-0576             
1 56065U 23043V   26002.16024197  .00000125  00000+0  29463-3 0  9998
2 56065  87.9046 261.8296 0001700  81.3717 278.7607 13.16593296137112
ONEWEB-0577             
1 56066U 23043W   26002.16656993  .00000143  00000+0  34132-3 0  9993
2 56066  87.9048 261.8269 0002251  82.8926 277.2461 13.16593701137141
