[{"OBJECT_NAME":"ONEWEB-0549","OBJECT_ID":"2023-043F","EPOCH":"2026-01-02T07:33:32.812704","MEAN_MOTION":13.21828057,"ECCENTRICITY":0.00014432,"INCLINATION":87.9224,"RA_OF_ASC_NODE":277.0725,"ARG_OF_PERICENTER":65.2689,"MEAN_ANOMALY":294.8595,"EPHEMERIS_TYPE":0,"CLASSIFICATION_TYPE":"U","NORAD_CAT_ID":56051,"ELEMENT_SET_NO":999,"REV_AT_EPOCH":13631,"BSTAR":0.00020044128,"MEAN_MOTION_DOT":9.6e-7,"MEAN_MOTION_DDOT":0},{"OBJECT_NAME":"ONEWEB-0550","OBJECT_ID":"2023-043G","EPOCH":"2026-01-02T07:14:36.477312","MEAN_MOTION":13.21825539,"ECCENTRICITY":0.00017001,"INCLINATION":87.9224,"RA_OF_ASC_NODE":277.0706,"ARG_OF_PERICENTER":77.5615,"MEAN_ANOMALY":282.5709,"EPHEMERIS_TYPE":0,"CLASSIFICATION_TYPE":"U","NORAD_CAT_ID":56052,"ELEMENT_SET_NO":999,"REV_AT_EPOCH":13631,"BSTAR":0.00020322271,"MEAN_MOTION_DOT":9.7e-7,"MEAN_MOTION_DDOT":0},{"OBJECT_NAME":"ONEWEB-0551","OBJECT_ID":"2023-043H","EPOCH":"2026-01-02T04:45:19.940544","MEAN_MOTION":13.15547379,"ECCENTRICITY":0.00016317,"INCLINATION":87.9006,"RA_OF_ASC_NODE":292.359,"ARG_OF_PERICENTER":67.1957,"MEAN_ANOMALY":292.9345,"EPHEMERIS_TYPE":0,"CLASSIFICATION_TYPE":"U","NORAD_CAT_ID":56053,"ELEMENT_SET_NO":999,"REV_AT_EPOCH":13457,"BSTAR":-8.6113096e-5,"MEAN_MOTION_DOT":-2.0e-7,"MEAN_MOTION_DDOT":0},{"OBJECT_NAME":"ONEWEB-0552","OBJECT_ID":"2023-043J","EPOCH":"2026-01-02T07:07:27.551424","MEAN_MOTION":13.21829562,"ECCENTRICITY":0.00016371,"INCLINATION":87.9225,"RA_OF_ASC_NODE":277.0798,"ARG_OF_PERICENTER":66.3314,"MEAN_ANOMALY":293.7992,"EPHEMERIS_TYPE":0,"CLASSIFICATION_TYPE":"U","NORAD_CAT_ID":56054,"ELEMENT_SET_NO":999,"REV_AT_EPOCH":13631,"BSTAR":0.00022512042,"MEAN_MOTION_DOT":1.06e-6,"MEAN_MOTION_DDOT":0},{"OBJECT_NAME":"ONEWEB-0553","OBJECT_ID":"2023-043K","EPOCH":"2026-01-02T04:54:35.062272","MEAN_MOTION":13.1658946,"ECCENTRICITY":0.00017017,"INCLINATION":87.9032,"RA_OF_ASC_NODE":261.8262,"ARG_OF_PERICENTER":90.9429,"MEAN_ANOMALY":269.1897,"EPHEMERIS_TYPE":0,"CLASSIFICATION_TYPE":"U","NORAD_CAT_ID":56055,"ELEMENT_SET_NO":999,"REV_AT_EPOCH":13713,"BSTAR":-0.00081469428,"MEAN_MOTION_DOT":-2.99e-6,"MEAN_MOTION_DDOT":0},{"OBJECT_NAME":"ONEWEB-0554","OBJECT_ID":"2023-043L","EPOCH":"2026-01-02T04:36:20.587680","MEAN_MOTION":13.16594097,"ECCENTRICITY":0.00018006,"INCLINATION":87.9034,"RA_OF_ASC_NODE":261.8382,"ARG_OF_PERICENTER":76.087,"MEAN_ANOMALY":284.0461,"EPHEMERIS_TYPE":0,"CLASSIFICATION_TYPE":"U","NORAD_CAT_ID":56056,"ELEMENT_SET_NO":999,"REV_AT_EPOCH":13711,"BSTAR":-7.8510586e-5,"MEAN_MOTION_DOT":-1.7e-7,"MEAN_MOTION_DDOT":0},{"OBJECT_NAME":"ONEWEB-0555","OBJECT_ID":"2023-043M","EPOCH":"2026-01-02T03:41:37.633920","MEAN_MOTION":13.16593463,"ECCENTRICITY":0.00015145,"INCLINATION":87.9044,"RA_OF_ASC_NODE":261.8286,"ARG_OF_PERICENTER":95.4337,"MEAN_ANOMALY":264.6967,"EPHEMERIS_TYPE":0,"CLASSIFICATION_TYPE":"U","NORAD_CAT_ID":56057,"ELEMENT_SET_NO":999,"REV_AT_EPOCH":13711,"BSTAR":0.0002916379,"MEAN_MOTION_DOT":1.24e-6,"MEAN_MOTION_DDOT":0},{"OBJECT_NAME":"ONEWEB-0557","OBJECT_ID":"2023-043N","EPOCH":"2026-01-02T04:02:09.037824","MEAN_MOTION":13.165939,"ECCENTRICITY":0.00026454,"INCLINATION":87.9039,"RA_OF_ASC_NODE":261.8387,"ARG_OF_PERICENTER":95.0811,"MEAN_ANOMALY":265.0621,"EPHEMERIS_TYPE":0,"CLASSIFICATION_TYPE":"U","NORAD_CAT_ID":56058,"ELEMENT_SET_NO":999,"REV_AT_EPOCH":13711,"BSTAR":0.00052827701,"MEAN_MOTION_DOT":2.15e-6,"MEAN_MOTION_DDOT":0},{"OBJECT_NAME":"ONEWEB-0558","OBJECT_ID":"2023-043P","EPOCH":"2026-01-02T05:09:01.332864","MEAN_MOTION":13.21826017,"ECCENTRICITY":0.00011975,"INCLINATION":87.9221,"RA_OF_ASC_NODE":277.0897,"ARG_OF_PERICENTER":63.226,"MEAN_ANOMALY":296.8996,"EPHEMERIS_TYPE":0,"CLASSIFICATION_TYPE":"U","NORAD_CAT_ID":56059,"ELEMENT_SET_NO":999,"REV_AT_EPOCH":13631,"BSTAR":0.00018810174,"MEAN_MOTION_DOT":9.1e-7,"MEAN_MOTION_DDOT":0},{"OBJECT_NAME":"ONEWEB-0559","OBJECT_ID":"2023-043Q","EPOCH":"2026-01-02T04:52:24.922272","MEAN_MOTION":13.21826489,"ECCENTRICITY":0.00015737,"INCLINATION":87.9224,"RA_OF_ASC_NODE":277.0851,"ARG_OF_PERICENTER":65.08,"MEAN_ANOMALY":295.0497,"EPHEMERIS_TYPE":0,"CLASSIFICATION_TYPE":"U","NORAD_CAT_ID":56060,"ELEMENT_SET_NO":999,"REV_AT_EPOCH":13632,"BSTAR":3.0489895e-5,"MEAN_MOTION_DOT":2.6e-7,"MEAN_MOTION_DDOT":0},{"OBJECT_NAME":"ONEWEB-0566","OBJECT_ID":"2023-043R","EPOCH":"2026-01-02T04:42:56.098368","MEAN_MOTION":13.21827346,"ECCENTRICITY":0.00014604,"INCLINATION":87.9225,"RA_OF_ASC_NODE":277.0853,"ARG_OF_PERICENTER":62.3143,"MEAN_ANOMALY":297.8139,"EPHEMERIS_TYPE":0,"CLASSIFICATION_TYPE":"U","NORAD_CAT_ID":56061,"ELEMENT_SET_NO":999,"REV_AT_EPOCH":13630,"BSTAR":0.0001006545,"MEAN_MOTION_DOT":5.5e-7,"MEAN_MOTION_DDOT":0},{"OBJECT_NAME":"ONEWEB-0568","OBJECT_ID":"2023-043S","EPOCH":"2026-01-02T04:27:13.044096","MEAN_MOTION":13.16594167,"ECCENTRICITY":0.00014682,"INCLINATION":87.9046,"RA_OF_ASC_NODE":261.8231,"ARG_OF_PERICENTER":89.4843,"MEAN_ANOMALY":270.6456,"EPHEMERIS_TYPE":0,"CLASSIFICATION_TYPE":"U","NORAD_CAT_ID":56062,"ELEMENT_SET_NO":999,"REV_AT_EPOCH":13713,"BSTAR":0.00036591256,"MEAN_MOTION_DOT":1.53e-6,"MEAN_MOTION_DDOT":0},{"OBJECT_NAME":"ONEWEB-0574","OBJECT_ID":"2023-043T","EPOCH":"2026-01-02T04:33:27.366048","MEAN_MOTION":13.21827875,"ECCENTRICITY":0.00017619,"INCLINATION":87.9228,"RA_OF_ASC_NODE":277.0737,"ARG_OF_PERICENTER":76.6584,"MEAN_ANOMALY":283.4747,"EPHEMERIS_TYPE":0,"CLASSIFICATION_TYPE":"U","NORAD_CAT_ID":56063,"ELEMENT_SET_NO":999,"REV_AT_EPOCH":13634,"BSTAR":0.00024326527,"MEAN_MOTION_DOT":1.13e-6,"MEAN_MOTION_DDOT":0},{"OBJECT_NAME":"ONEWEB-0575","OBJECT_ID":"2023-043U","EPOCH":"2026-01-02T04:18:05.802912","MEAN_MOTION":13.16593906,"ECCENTRICITY":0.00018349,"INCLINATION":87.9043,"RA_OF_ASC_NODE":261.8241,"ARG_OF_PERICENTER":82.2307,"MEAN_ANOMALY":277.9033,"EPHEMERIS_TYPE":0,"CLASSIFICATION_TYPE":"U","NORAD_CAT_ID":56064,"ELEMENT_SET_NO":999,"REV_AT_EPOCH":13712,"BSTAR":0.00033714847,"MEAN_MOTION_DOT":1.42e-6,"MEAN_MOTION_DDOT":0},{"OBJECT_NAME":"ONEWEB-0576","OBJECT_ID":"2023-043V","EPOCH":"2026-01-02T03:50:44.906208","MEAN_MOTION":13.16593296,"ECCENTRICITY":0.00017009,"INCLINATION":87.9046,"RA_OF_ASC_NODE":261.8296,"ARG_OF_PERICENTER":81.3717,"MEAN_ANOMALY":278.7607,"EPHEMERIS_TYPE":0,"CLASSIFICATION_TYPE":"U","NORAD_CAT_ID":56065,"ELEMENT_SET_NO":999,"REV_AT_EPOCH":13711,"BSTAR":0.00029462584,"MEAN_MOTION_DOT":1.25e-6,"MEAN_MOTION_DDOT":0},{"OBJECT_NAME":"ONEWEB-0577","OBJECT_ID":"2023-043W","EPOCH":"2026-01-02T03:59:51.641952","MEAN_MOTION":13.16593701,"ECCENTRICITY":0.00022518,"INCLINATION":87.9048,"RA_OF_ASC_NODE":261.8269,"ARG_OF_PERICENTER":82.8926,"MEAN_ANOMALY":277.2461,"EPHEMERIS_TYPE":0,"CLASSIFICATION_TYPE":"U","NORAD_CAT_ID":56066,"ELEMENT_SET_NO":999,"REV_AT_EPOCH":13714,"BSTAR":0.0003413205,"MEAN_MOTION_DOT":1.43e-6,"MEAN_MOTION_DDOT":0}]
